STARLINK-35969          
1 66523U 25265H   26068.94801688  .00023981  00000+0  87780-3 0  9993
2 66523  42.9962 276.4153 0000409  51.3736 308.7153 15.27593168 17150
KUIPER-00209            
1 67776U 26030N   26068.61786546  .00035298  00000+0  11963-2 0  9997
2 67776  51.8838 220.0775 0012191  59.1967 301.0215 15.30161950  5077
